{
  "type": "FeatureCollection",
  "features": [
      {
          "type": "Feature",
          "properties": {
              "@id": 1,
              "name": "Додо Пицца",
              "opening_hours": "ежедневно, 11:00–23:00",
              "type": "Dodo Pizza",
              "addr:street": "Минск, улица Романовская Слобода, 8",
              "website": "https://dodopizza.by/"
          },
          "geometry": {
              "type": "Point",
              "coordinates": [
                  27.547467,
                  53.902579
              ]
          },
          "id": 1
      },
      {
          "type": "Feature",
          "properties": {
              "@id": 2,
              "name": "Додо Пицца",
              "opening_hours": "ежедневно, 11:00–23:00",
              "type": "Dodo Pizza",
              "addr:street": "Минск, улица Максима Богдановича, 62",
              "website": "https://dodopizza.by/"
          },
          "geometry": {
              "type": "Point",
              "coordinates": [
                  27.568691,
                  53.921815
              ]
          },
          "id": 2
      },
      {
          "type": "Feature",
          "properties": {
              "@id": 3,
              "name": "Додо Пицца",
              "opening_hours": "ежедневно, 11:00–23:00",
              "type": "Dodo Pizza",
              "addr:street": "Минск, Белградская улица, 4",
              "website": "https://dodopizza.by/"
          },
          "geometry": {
              "type": "Point",
              "coordinates": [
                  27.541781,
                  53.871222
              ]
          },
          "id": 3
      },
      {
          "type": "Feature",
          "properties": {
              "@id": 4,
              "name": "Додо Пицца",
              "opening_hours": "ежедневно, 11:00–23:00",
              "type": "Dodo Pizza",
              "addr:street": "Минск, улица Сурганова, 50к1",
              "website": "https://dodopizza.by/"
          },
          "geometry": {
              "type": "Point",
              "coordinates": [
                  27.587092,
                  53.928727
              ]
          },
          "id": 4
      },
      {
          "type": "Feature",
          "properties": {
              "@id": 5,
              "name": "Додо Пицца",
              "opening_hours": "ежедневно, 11:00–23:00",
              "type": "Dodo Pizza",
              "addr:street": "Минск, Волгоградская улица, 4А",
              "website": "https://dodopizza.by/"
          },
          "geometry": {
              "type": "Point",
              "coordinates": [
                  27.625766,
                  53.929312
              ]
          },
          "id": 5
      },
      {
          "type": "Feature",
          "properties": {
              "@id": 6,
              "name": "Додо Пицца",
              "opening_hours": "ежедневно, 11:00–23:00",
              "type": "Dodo Pizza",
              "addr:street": "Минск, Партизанский проспект, 87",
              "website": "https://dodopizza.by/"
          },
          "geometry": {
              "type": "Point",
              "coordinates": [
                  27.633207,
                  53.874441
              ]
          },
          "id": 6
      },
      {
          "type": "Feature",
          "properties": {
              "@id": 7,
              "name": "Додо Пицца",
              "opening_hours": "ежедневно, 11:00–23:00",
              "type": "Dodo Pizza",
              "addr:street": "Минск, Денисовская улица, 8",
              "website": "https://dodopizza.by/"
          },
          "geometry": {
              "type": "Point",
              "coordinates": [
                  27.573083,
                  53.871071
              ]
          },
          "id": 7
      },
      {
          "type": "Feature",
          "properties": {
              "@id": 8,
              "name": "Додо Пицца",
              "opening_hours": "ежедневно, 11:00–23:00",
              "type": "Dodo Pizza",
              "addr:street": "Минск, Ленинский район, микрорайон Лошица, улица Иосифа Гошкевича, 3",
              "website": "https://dodopizza.by/"
          },
          "geometry": {
              "type": "Point",
              "coordinates": [
                  27.569397,
                  53.839909
              ]
          },
          "id": 8
      },
      {
          "type": "Feature",
          "properties": {
              "@id": 9,
              "name": "Додо Пицца",
              "opening_hours": "ежедневно, 10:00–22:00",
              "type": "Dodo Pizza",
              "addr:street": "Минск, улица Притыцкого, 156к1-1",
              "website": "https://dodopizza.by/"
          },
          "geometry": {
              "type": "Point",
              "coordinates": [
                  27.429979,
                  53.908731
              ]
          },
          "id": 9
      },
      {
          "type": "Feature",
          "properties": {
              "@id": 10,
              "name": "Додо Пицца",
              "opening_hours": "ежедневно, 11:00–23:00",
              "type": "Dodo Pizza",
              "addr:street": "Минск, улица Одинцова, 65",
              "website": "https://dodopizza.by/"
          },
          "geometry": {
              "type": "Point",
              "coordinates": [
                  27.440858,
                  53.900221
              ]
          },
          "id": 10
      }
  ]
}